{"epoch":1784710044,"count":18256,"objects":[{"id":"39634","name":"SENTINEL 1A","type":"PAYLOAD","l1":"1 39634U 14016A   26202.58469653  .00000103  00000-0  31533-4 0  9998","l2":"2 39634  98.1714 209.6122 0001435  85.1809 274.9554 14.59173297655036"},{"id":"41456","name":"SENTINEL 1B","type":"PAYLOAD","l1":"1 41456U 16025A   26202.63142728  .00001089  00000-0  94352-4 0  9994","l2":"2 41456  98.0885 264.7144 0014671  16.6209 343.5491 14.99294799548943"},{"id":"62261","name":"SENTINEL 1C","type":"PAYLOAD","l1":"1 62261U 24235A   26202.62402459  .00000114  00000-0  33959-4 0  9996","l2":"2 62261  98.1825 209.4439 0001390  89.1706 270.9653 14.59199146 86439"},{"id":"66315","name":"SENTINEL-1D","type":"PAYLOAD","l1":"1 66315U 25251A   26202.04132305  .00000004  00000-0  10635-4 0  9999","l2":"2 66315  98.1830 208.9247 0001367  88.0240 272.1116 14.59197715 37664"}]}