{"fetched_at":"2026-07-22T07:10:03.774Z","source":"https://celestrak.org/NORAD/elements/gp.php?NAME=SENTINEL&FORMAT=JSON","constellation":"sentinel-1","records":[{"OBJECT_NAME":"SENTINEL-1A","OBJECT_ID":"2014-016A","EPOCH":"2026-07-21T14:01:57.780192","CLASSIFICATION_TYPE":"U","MEAN_MOTION":14.59173297,"ECCENTRICITY":0.0001435,"INCLINATION":98.1714,"RA_OF_ASC_NODE":209.6122,"ARG_OF_PERICENTER":85.1809,"MEAN_ANOMALY":274.9554,"EPHEMERIS_TYPE":0,"NORAD_CAT_ID":39634,"ELEMENT_SET_NO":999,"REV_AT_EPOCH":65503,"BSTAR":0.000031533,"MEAN_MOTION_DOT":0.00000103,"MEAN_MOTION_DDOT":0},{"OBJECT_NAME":"SENTINEL-1B","OBJECT_ID":"2016-025A","EPOCH":"2026-07-21T15:09:15.316992","CLASSIFICATION_TYPE":"U","MEAN_MOTION":14.99294799,"ECCENTRICITY":0.00146712,"INCLINATION":98.0885,"RA_OF_ASC_NODE":264.7144,"ARG_OF_PERICENTER":16.6209,"MEAN_ANOMALY":343.5491,"EPHEMERIS_TYPE":0,"NORAD_CAT_ID":41456,"ELEMENT_SET_NO":999,"REV_AT_EPOCH":54894,"BSTAR":0.000094352271,"MEAN_MOTION_DOT":0.00001089,"MEAN_MOTION_DDOT":0},{"OBJECT_NAME":"SENTINEL-1C","OBJECT_ID":"2024-235A","EPOCH":"2026-07-21T14:58:35.724576","CLASSIFICATION_TYPE":"U","MEAN_MOTION":14.59199146,"ECCENTRICITY":0.00013899,"INCLINATION":98.1825,"RA_OF_ASC_NODE":209.4439,"ARG_OF_PERICENTER":89.1706,"MEAN_ANOMALY":270.9653,"EPHEMERIS_TYPE":0,"NORAD_CAT_ID":62261,"ELEMENT_SET_NO":999,"REV_AT_EPOCH":8643,"BSTAR":0.000033958907,"MEAN_MOTION_DOT":0.00000114,"MEAN_MOTION_DDOT":0},{"OBJECT_NAME":"SENTINEL-1D","OBJECT_ID":"2025-251A","EPOCH":"2026-07-21T00:59:30.311520","CLASSIFICATION_TYPE":"U","MEAN_MOTION":14.59197715,"ECCENTRICITY":0.00013669,"INCLINATION":98.183,"RA_OF_ASC_NODE":208.9247,"ARG_OF_PERICENTER":88.024,"MEAN_ANOMALY":272.1116,"EPHEMERIS_TYPE":0,"NORAD_CAT_ID":66315,"ELEMENT_SET_NO":999,"REV_AT_EPOCH":3766,"BSTAR":0.000010634539,"MEAN_MOTION_DOT":4e-8,"MEAN_MOTION_DDOT":0}]}
